{"type": "FeatureCollection", "features": [ {"type": "Feature", "properties": {"norad_id": 67101, "name": "STARLINK-36200", "group": "last-30-days", "lat": -20.64521455188137, "lon": -155.52121336174892, "alt_km": 339.902777959609, "timestamp": "2025-12-25T22:42:15.712350+00:00", "meta": {"OBJECT_NAME": "STARLINK-36200", "OBJECT_ID": "2025-298AC", "EPOCH": "2025-12-25T18:00:02.000160", "MEAN_MOTION": 15.78802303, "ECCENTRICITY": 0.000388, "INCLINATION": 69.9963, "RA_OF_ASC_NODE": 212.9261, "ARG_OF_PERICENTER": 266.9289, "MEAN_ANOMALY": 37.7627, "EPHEMERIS_TYPE": 0, "CLASSIFICATION_TYPE": "U", "NORAD_CAT_ID": 67101, "ELEMENT_SET_NO": 999, "REV_AT_EPOCH": 306, "BSTAR": -0.011396, "MEAN_MOTION_DOT": -0.01772586, "MEAN_MOTION_DDOT": 0}, "tle": {"line1": "1 67101U 25298AC  25359.75002315 -.01772586  00000+0 -11396-1 0  9996", "line2": "2 67101  69.9963 212.9261 0003880 266.9289  37.7627 15.78802303  3061"}}, "geometry": {"type": "Point", "coordinates": [-155.52121336174892, -20.64521455188137]}}, {"type": "Feature", "properties": {"norad_id": 67102, "name": "STARLINK-36255", "group": "last-30-days", "lat": -27.799842710889628, "lon": 90.1958154072642, "alt_km": 329.12026250558665, "timestamp": "2025-12-25T22:42:15.712360+00:00", "meta": {"OBJECT_NAME": "STARLINK-36255", "OBJECT_ID": "2025-299A", "EPOCH": "2025-12-25T18:00:02.000160", "MEAN_MOTION": 15.81841352, "ECCENTRICITY": 0.0001393, "INCLINATION": 42.9969, "RA_OF_ASC_NODE": 236.9339, "ARG_OF_PERICENTER": 260.6556, "MEAN_ANOMALY": 285.2636, "EPHEMERIS_TYPE": 0, "CLASSIFICATION_TYPE": "U", "NORAD_CAT_ID": 67102, "ELEMENT_SET_NO": 999, "REV_AT_EPOCH": 290, "BSTAR": -0.0098548, "MEAN_MOTION_DOT": -0.01809727, "MEAN_MOTION_DDOT": 0}, "tle": {"line1": "1 67102U 25299A   25359.75002315 -.01809727  00000+0 -98548-2 0  9991", "line2": "2 67102  42.9969 236.9339 0001393 260.6556 285.2636 15.81841352  2909"}}, "geometry": {"type": "Point", "coordinates": [90.1958154072642, -27.799842710889628]}}, {"type": "Feature", "properties": {"norad_id": 67103, "name": "STARLINK-36256", "group": "last-30-days", "lat": -28.557774427099968, "lon": 91.47235225796443, "alt_km": 329.1475852210451, "timestamp": "2025-12-25T22:42:15.712373+00:00", "meta": {"OBJECT_NAME": "STARLINK-36256", "OBJECT_ID": "2025-299B", "EPOCH": "2025-12-25T18:00:02.000160", "MEAN_MOTION": 15.8186202, "ECCENTRICITY": 0.0001367, "INCLINATION": 42.9968, "RA_OF_ASC_NODE": 236.9306, "ARG_OF_PERICENTER": 263.4228, "MEAN_ANOMALY": 283.8428, "EPHEMERIS_TYPE": 0, "CLASSIFICATION_TYPE": "U", "NORAD_CAT_ID": 67103, "ELEMENT_SET_NO": 999, "REV_AT_EPOCH": 290, "BSTAR": -0.0098551, "MEAN_MOTION_DOT": -0.01811303, "MEAN_MOTION_DDOT": 0}, "tle": {"line1": "1 67103U 25299B   25359.75002315 -.01811303  00000+0 -98551-2 0  9999", "line2": "2 67103  42.9968 236.9306 0001367 263.4228 283.8428 15.81862020  2909"}}, "geometry": {"type": "Point", "coordinates": [91.47235225796443, -28.557774427099968]}}, {"type": "Feature", "properties": {"norad_id": 67104, "name": "STARLINK-36258", "group": "last-30-days", "lat": -29.38743951929216, "lon": 92.91520638055154, "alt_km": 329.1055161440254, "timestamp": "2025-12-25T22:42:15.712384+00:00", "meta": {"OBJECT_NAME": "STARLINK-36258", "OBJECT_ID": "2025-299C", "EPOCH": "2025-12-25T18:00:02.000160", "MEAN_MOTION": 15.81875716, "ECCENTRICITY": 0.0001424, "INCLINATION": 42.9968, "RA_OF_ASC_NODE": 236.9267, "ARG_OF_PERICENTER": 262.6714, "MEAN_ANOMALY": 286.0992, "EPHEMERIS_TYPE": 0, "CLASSIFICATION_TYPE": "U", "NORAD_CAT_ID": 67104, "ELEMENT_SET_NO": 999, "REV_AT_EPOCH": 290, "BSTAR": -0.0098429, "MEAN_MOTION_DOT": -0.01810409, "MEAN_MOTION_DDOT": 0}, "tle": {"line1": "1 67104U 25299C   25359.75002315 -.01810409  00000+0 -98429-2 0  9990", "line2": "2 67104  42.9968 236.9267 0001424 262.6714 286.0992 15.81875716  2908"}}, "geometry": {"type": "Point", "coordinates": [92.91520638055154, -29.38743951929216]}}, {"type": "Feature", "properties": {"norad_id": 67105, "name": "STARLINK-36261", "group": "last-30-days", "lat": -30.085514891578363, "lon": 94.17036201053428, "alt_km": 329.0641421489199, "timestamp": "2025-12-25T22:42:15.712394+00:00", "meta": {"OBJECT_NAME": "STARLINK-36261", "OBJECT_ID": "2025-299D", "EPOCH": "2025-12-25T18:00:02.000160", "MEAN_MOTION": 15.81896138, "ECCENTRICITY": 0.0001395, "INCLINATION": 42.9966, "RA_OF_ASC_NODE": 236.9236, "ARG_OF_PERICENTER": 260.3226, "MEAN_ANOMALY": 289.73, "EPHEMERIS_TYPE": 0, "CLASSIFICATION_TYPE": "U", "NORAD_CAT_ID": 67105, "ELEMENT_SET_NO": 999, "REV_AT_EPOCH": 290, "BSTAR": -0.0098223, "MEAN_MOTION_DOT": -0.01808591, "MEAN_MOTION_DDOT": 0}, "tle": {"line1": "1 67105U 25299D   25359.75002315 -.01808591  00000+0 -98223-2 0  9992", "line2": "2 67105  42.9966 236.9236 0001395 260.3226 289.7300 15.81896138  2907"}}, "geometry": {"type": "Point", "coordinates": [94.17036201053428, -30.085514891578363]}}, {"type": "Feature", "properties": {"norad_id": 67106, "name": "STARLINK-36259", "group": "last-30-days", "lat": -31.81853290421913, "lon": 97.46877649219567, "alt_km": 329.0252678724728, "timestamp": "2025-12-25T22:42:15.712404+00:00", "meta": {"OBJECT_NAME": "STARLINK-36259", "OBJECT_ID": "2025-299E", "EPOCH": "2025-12-25T18:00:02.000160", "MEAN_MOTION": 15.81910431, "ECCENTRICITY": 0.0001461, "INCLINATION": 42.9969, "RA_OF_ASC_NODE": 236.9153, "ARG_OF_PERICENTER": 257.6071, "MEAN_ANOMALY": 295.7601, "EPHEMERIS_TYPE": 0, "CLASSIFICATION_TYPE": "U", "NORAD_CAT_ID": 67106, "ELEMENT_SET_NO": 999, "REV_AT_EPOCH": 290, "BSTAR": -0.0097801, "MEAN_MOTION_DOT": -0.01802906, "MEAN_MOTION_DDOT": 0}, "tle": {"line1": "1 67106U 25299E   25359.75002315 -.01802906  00000+0 -97801-2 0  9998", "line2": "2 67106  42.9969 236.9153 0001461 257.6071 295.7601 15.81910431  2904"}}, "geometry": {"type": "Point", "coordinates": [97.46877649219567, -31.81853290421913]}}, {"type": "Feature", "properties": {"norad_id": 67107, "name": "STARLINK-36196", "group": "last-30-days", "lat": -30.92381836587547, "lon": 95.73101966192088, "alt_km": 329.0990314692435, "timestamp": "2025-12-25T22:42:15.712416+00:00", "meta": {"OBJECT_NAME": "STARLINK-36196", "OBJECT_ID": "2025-299F", "EPOCH": "2025-12-25T18:00:02.000160", "MEAN_MOTION": 15.81905644, "ECCENTRICITY": 0.0001358, "INCLINATION": 42.9968, "RA_OF_ASC_NODE": 236.9198, "ARG_OF_PERICENTER": 260.9582, "MEAN_ANOMALY": 290.676, "EPHEMERIS_TYPE": 0, "CLASSIFICATION_TYPE": "U", "NORAD_CAT_ID": 67107, "ELEMENT_SET_NO": 999, "REV_AT_EPOCH": 290, "BSTAR": -0.009806, "MEAN_MOTION_DOT": -0.0180664, "MEAN_MOTION_DDOT": 0}, "tle": {"line1": "1 67107U 25299F   25359.75002315 -.01806640  00000+0 -98060-2 0  9996", "line2": "2 67107  42.9968 236.9198 0001358 260.9582 290.6760 15.81905644  2902"}}, "geometry": {"type": "Point", "coordinates": [95.73101966192088, -30.92381836587547]}}, {"type": "Feature", "properties": {"norad_id": 67108, "name": "STARLINK-36208", "group": "last-30-days", "lat": -32.684269571939154, "lon": 99.23052396742627, "alt_km": 329.0622165032437, "timestamp": "2025-12-25T22:42:15.712426+00:00", "meta": {"OBJECT_NAME": "STARLINK-36208", "OBJECT_ID": "2025-299G", "EPOCH": "2025-12-25T18:00:02.000160", "MEAN_MOTION": 15.8191959, "ECCENTRICITY": 0.000144, "INCLINATION": 42.9968, "RA_OF_ASC_NODE": 236.9108, "ARG_OF_PERICENTER": 258.7568, "MEAN_ANOMALY": 296.3327, "EPHEMERIS_TYPE": 0, "CLASSIFICATION_TYPE": "U", "NORAD_CAT_ID": 67108, "ELEMENT_SET_NO": 999, "REV_AT_EPOCH": 290, "BSTAR": -0.0097931, "MEAN_MOTION_DOT": -0.01805669, "MEAN_MOTION_DDOT": 0}, "tle": {"line1": "1 67108U 25299G   25359.75002315 -.01805669  00000+0 -97931-2 0  9993", "line2": "2 67108  42.9968 236.9108 0001440 258.7568 296.3327 15.81919590  2902"}}, "geometry": {"type": "Point", "coordinates": [99.23052396742627, -32.684269571939154]}}, {"type": "Feature", "properties": {"norad_id": 67109, "name": "STARLINK-35764", "group": "last-30-days", "lat": -33.58425307445825, "lon": 101.1566214426798, "alt_km": 329.1244017307008, "timestamp": "2025-12-25T22:42:15.712438+00:00", "meta": {"OBJECT_NAME": "STARLINK-35764", "OBJECT_ID": "2025-299H", "EPOCH": "2025-12-25T18:00:02.000160", "MEAN_MOTION": 15.81925055, "ECCENTRICITY": 0.0001448, "INCLINATION": 42.9969, "RA_OF_ASC_NODE": 236.9061, "ARG_OF_PERICENTER": 263.0286, "MEAN_ANOMALY": 293.9114, "EPHEMERIS_TYPE": 0, "CLASSIFICATION_TYPE": "U", "NORAD_CAT_ID": 67109, "ELEMENT_SET_NO": 999, "REV_AT_EPOCH": 279, "BSTAR": -0.0098189, "MEAN_MOTION_DOT": -0.01810271, "MEAN_MOTION_DDOT": 0}, "tle": {"line1": "1 67109U 25299H   25359.75002315 -.01810271  00000+0 -98189-2 0  9995", "line2": "2 67109  42.9969 236.9061 0001448 263.0286 293.9114 15.81925055  2793"}}, "geometry": {"type": "Point", "coordinates": [101.1566214426798, -33.58425307445825]}}, {"type": "Feature", "properties": {"norad_id": 67110, "name": "STARLINK-35781", "group": "last-30-days", "lat": -35.24170585975838, "lon": 105.00889090812906, "alt_km": 329.1942223093356, "timestamp": "2025-12-25T22:42:15.712450+00:00", "meta": {"OBJECT_NAME": "STARLINK-35781", "OBJECT_ID": "2025-299J", "EPOCH": "2025-12-25T18:00:02.000160", "MEAN_MOTION": 15.81932176, "ECCENTRICITY": 0.0001338, "INCLINATION": 42.997, "RA_OF_ASC_NODE": 236.8971, "ARG_OF_PERICENTER": 258.7309, "MEAN_ANOMALY": 301.7961, "EPHEMERIS_TYPE": 0, "CLASSIFICATION_TYPE": "U", "NORAD_CAT_ID": 67110, "ELEMENT_SET_NO": 999, "REV_AT_EPOCH": 285, "BSTAR": -0.0098086, "MEAN_MOTION_DOT": -0.01809037, "MEAN_MOTION_DDOT": 0}, "tle": {"line1": "1 67110U 25299J   25359.75002315 -.01809037  00000+0 -98086-2 0  9991", "line2": "2 67110  42.9970 236.8971 0001338 258.7309 301.7961 15.81932176  2858"}}, "geometry": {"type": "Point", "coordinates": [105.00889090812906, -35.24170585975838]}}]}